NORAD_CAT_ID,OBJECT_NAME,OBJECT_TYPE,EPOCH,MEAN_MOTION,ECCENTRICITY,INCLINATION,RA_OF_ASC_NODE,ARG_OF_PERICENTER,MEAN_ANOMALY,BSTAR,MEAN_MOTION_DOT,MEAN_MOTION_DDOT,TLE_LINE0,TLE_LINE1,TLE_LINE2,SEMIMAJOR_AXIS,PERIOD,APOGEE,PERIGEE,DECAYED
54075.0,STARLINK-5212,PAYLOAD,2023-11-06 21:09:59,15.08846475,0.000155,53.2169,211.6265,120.6966,239.4179,-9.3529e-05,-1.776e-05,0.0,0 STARLINK-5212,1 54075U 22136AA  23310.88193571 -.00001776  00000-0 -93529-4 0  9991,2 54075  53.2169 211.6265 0001550 120.6966 239.4179 15.08846475 58021,6917.861,95.437,540.798,538.653,0.0
54075.0,STARLINK-5212,PAYLOAD,2023-11-06 22:45:22,15.08803233,0.0001368,53.2169,211.3291,102.2391,257.8755,-0.0017132,-0.00027423,0.0,0 STARLINK-5212,1 54075U 22136AA  23310.94817816 -.00027423  00000-0 -17132-2 0  9994,2 54075  53.2169 211.3291 0001368 102.2391 257.8755 15.08803233 58515,6917.993,95.44,540.804,538.911,0.0
54075.0,STARLINK-5212,PAYLOAD,2023-11-07 09:53:06,15.08780802,0.0001281,53.2172,209.2494,100.9481,259.1655,-0.00044347,-7.327e-05,0.0,0 STARLINK-5212,1 54075U 22136AA  23311.41187586 -.00007327  00000-0 -44347-3 0  9991,2 54075  53.2172 209.2494 0001281 100.9481 259.1655 15.08780802 58104,6918.061,95.441,540.813,539.04,0.0
54075.0,STARLINK-5212,PAYLOAD,2023-11-08 00:11:36,15.08798129,0.0001601,53.2171,206.5698,108.5823,251.5343,0.0017713,0.00027982,0.0,0 STARLINK-5212,1 54075U 22136AA  23312.00805628  .00027982  00000-0  17713-2 0  9994,2 54075  53.2171 206.5698 0001601 108.5823 251.5343 15.08798129 58672,6918.008,95.44,540.981,538.766,0.0
54075.0,STARLINK-5212,PAYLOAD,2023-11-08 22:26:59,15.08871315,0.0001302,53.2169,202.411,101.0822,259.0316,0.0016039,0.00025352,0.0,0 STARLINK-5212,1 54075U 22136AA  23312.93540811  .00025352  00000-0  16039-2 0  9995,2 54075  53.2169 202.4110 0001302 101.0822 259.0316 15.08871315 58333,6917.785,95.436,540.55,538.749,0.0
54075.0,STARLINK-5212,PAYLOAD,2023-11-09 22:17:45,15.08858224,0.0002011,53.2159,197.9506,148.5897,211.5215,0.00098662,0.00015457,0.0,0 STARLINK-5212,1 54075U 22136AA  23313.92899990  .00015457  00000-0  98662-3 0  9998,2 54075  53.2159 197.9506 0002011 148.5897 211.5215 15.08858224 58486,6917.825,95.436,541.081,538.299,0.0
54075.0,STARLINK-5212,PAYLOAD,2023-11-10 01:28:32,15.08850947,0.000111,53.2157,197.3558,95.1028,265.009,0.00021072,3.068e-05,0.0,0 STARLINK-5212,1 54075U 22136AA  23314.06148277  .00003068  00000-0  21072-3 0  9995,2 54075  53.2157 197.3558 0001110  95.1028 265.0090 15.08850947 58981,6917.847,95.437,540.48,538.944,0.0
54075.0,STARLINK-5212,PAYLOAD,2023-11-10 09:25:28,15.08841736,0.0001381,53.2159,195.8673,85.3051,274.8099,-8.2086e-06,-4.19e-06,0.0,0 STARLINK-5212,1 54075U 22136AA  23314.39268606 -.00000419  00000-0 -82086-5 0  9993,2 54075  53.2159 195.8673 0001381  85.3051 274.8099 15.08841736 59031,6917.875,95.437,540.695,538.785,0.0
54075.0,STARLINK-5212,PAYLOAD,2023-11-11 09:16:15,15.08836124,0.0001363,53.2152,191.4064,94.2576,265.8572,0.00017575,2.51e-05,0.0,0 STARLINK-5212,1 54075U 22136AA  23315.38629092  .00002510  00000-0  17575-3 0  9994,2 54075  53.2152 191.4064 0001363  94.2576 265.8572 15.08836124 59188,6917.892,95.438,540.7,538.814,0.0
54075.0,STARLINK-5212,PAYLOAD,2023-11-11 21:59:20,15.08844587,0.0001403,53.216,189.0282,89.4899,270.6253,0.00024778,3.658e-05,0.0,0 STARLINK-5212,1 54075U 22136AA  23315.91620999  .00003658  00000-0  24778-3 0  9997,2 54075  53.2160 189.0282 0001403  89.4899 270.6253 15.08844587 58788,6917.866,95.437,540.702,538.761,0.0
54075.0,STARLINK-5212,PAYLOAD,2023-11-12 09:07:02,15.08847388,0.0001453,53.2157,186.9473,89.9735,270.1424,0.000307,4.602e-05,0.0,0 STARLINK-5212,1 54075U 22136AA  23316.37988973  .00004602  00000-0  30700-3 0  9999,2 54075  53.2157 186.9473 0001453  89.9735 270.1424 15.08847388 58856,6917.858,95.437,540.728,538.718,0.0
54075.0,STARLINK-5212,PAYLOAD,2023-11-12 18:39:21,15.08850831,0.0001516,53.2161,185.1622,92.3077,267.8088,0.00035515,5.37e-05,0.0,0 STARLINK-5212,1 54075U 22136AA  23316.77732790  .00005370  00000-0  35515-3 0  9999,2 54075  53.2161 185.1622 0001516  92.3077 267.8088 15.08850831 59391,6917.847,95.437,540.761,538.664,0.0
54075.0,STARLINK-5212,PAYLOAD,2023-11-12 21:50:07,15.08855013,0.0001566,53.2159,184.5672,96.9123,263.2047,0.00034546,5.216e-05,0.0,0 STARLINK-5212,1 54075U 22136AA  23316.90980500  .00005216  00000-0  34546-3 0  9990,2 54075  53.2159 184.5672 0001566  96.9123 263.2047 15.08855013 58934,6917.835,95.437,540.783,538.616,0.0
54075.0,STARLINK-5212,PAYLOAD,2023-11-14 00:51:40,15.08850961,0.0001509,53.2155,179.5128,89.9609,270.1556,0.00019518,2.821e-05,0.0,0 STARLINK-5212,1 54075U 22136AA  23318.03588344  .00002821  00000-0  19518-3 0  9997,2 54075  53.2155 179.5128 0001509  89.9609 270.1556 15.08850961 59589,6917.847,95.437,540.756,538.668,0.0
54075.0,STARLINK-5212,PAYLOAD,2023-11-14 15:10:08,15.08844344,0.000163,53.2154,176.8349,97.2014,262.9163,5.7469e-05,6.27e-06,0.0,0 STARLINK-5212,1 54075U 22136AA  23318.63204393  .00000627  00000-0  57469-4 0  9992,2 54075  53.2154 176.8349 0001630  97.2014 262.9163 15.08844344 59671,6917.867,95.437,540.86,538.604,0.0
54075.0,STARLINK-5212,PAYLOAD,2023-11-14 21:31:41,15.08839121,0.0001518,53.2153,175.6469,91.8365,268.2801,-1.957e-05,-5.99e-06,0.0,0 STARLINK-5212,1 54075U 22136AA  23318.89700585 -.00000599  00000-0 -19570-4 0  9995,2 54075  53.2153 175.6469 0001518  91.8365 268.2801 15.08839121 59231,6917.883,95.438,540.798,538.698,0.0
54075.0,STARLINK-5212,PAYLOAD,2023-11-15 00:42:27,15.08839695,0.0001487,53.2163,175.0527,95.7459,264.3702,-5.451e-05,-1.155e-05,0.0,0 STARLINK-5212,1 54075U 22136AA  23319.02948610 -.00001155  00000-0 -54510-4 0  9996,2 54075  53.2163 175.0527 0001487  95.7459 264.3702 15.08839695 59731,6917.881,95.438,540.775,538.718,0.0
54075.0,STARLINK-5212,PAYLOAD,2023-11-15 21:22:28,15.08836519,0.0001267,53.2139,171.1871,91.844,268.2697,0.00011186,1.493e-05,0.0,0 STARLINK-5212,1 54075U 22136AA  23319.89060830  .00001493  00000-0  11186-3 0  9994,2 54075  53.2139 171.1871 0001267  91.8440 268.2697 15.08836519 59385,6917.891,95.438,540.633,538.88,0.0
54075.0,STARLINK-5212,PAYLOAD,2023-11-16 00:33:14,15.08836785,0.0001315,53.2141,170.5927,92.6169,267.4974,0.00010502,1.384e-05,0.0,0 STARLINK-5212,1 54075U 22136AA  23320.02308849  .00001384  00000-0  10502-3 0  9996,2 54075  53.2141 170.5927 0001315  92.6169 267.4974 15.08836785 59401,6917.89,95.438,540.665,538.846,0.0
54075.0,STARLINK-5212,PAYLOAD,2023-11-16 21:13:15,15.08840418,0.0002333,53.2142,166.7248,90.6713,269.4546,9.3147e-05,1.194e-05,0.0,0 STARLINK-5212,1 54075U 22136AA  23320.88420737  .00001194  00000-0  93147-4 0  9997,2 54075  53.2142 166.7248 0002333  90.6713 269.4546 15.08840418 59538,6917.879,95.438,541.358,538.13,0.0
54075.0,STARLINK-5212,PAYLOAD,2023-11-17 06:45:35,15.08829062,0.0001903,53.2183,164.942,88.3604,271.7606,5.1066e-05,5.24e-06,0.0,0 STARLINK-5212,1 54075U 22136AA  23321.28166243  .00000524  00000-0  51066-4 0  9991,2 54075  53.2183 164.9420 0001903  88.3604 271.7606 15.08829062 60076,6917.914,95.438,541.095,538.462,0.0
54075.0,STARLINK-5212,PAYLOAD,2023-11-17 13:07:07,15.08838311,0.0001434,53.2166,163.7531,91.9965,268.1192,9.1485e-05,1.168e-05,0.0,0 STARLINK-5212,1 54075U 22136AA  23321.54661478  .00001168  00000-0  91485-4 0  9994,2 54075  53.2166 163.7531 0001434  91.9965 268.1192 15.08838311 59633,6917.886,95.438,540.743,538.759,0.0
54075.0,STARLINK-5212,PAYLOAD,2023-11-18 12:57:54,15.08838996,0.0001443,53.2139,159.292,92.1138,268.0019,0.00013084,1.795e-05,0.0,0 STARLINK-5212,1 54075U 22136AA  23322.54021553  .00001795  00000-0  13084-3 0  9993,2 54075  53.2139 159.2920 0001443  92.1138 268.0019 15.08838996 59782,6917.883,95.438,540.747,538.75,0.0
54075.0,STARLINK-5212,PAYLOAD,2023-11-18 19:19:27,15.08840101,0.0001404,53.2138,158.1025,92.3416,267.7737,0.00010231,1.341e-05,0.0,0 STARLINK-5212,1 54075U 22136AA  23322.80517565  .00001341  00000-0  10231-3 0  9993,2 54075  53.2138 158.1025 0001404  92.3416 267.7737 15.08840101 60307,6917.88,95.438,540.716,538.774,0.0
54075.0,STARLINK-5212,PAYLOAD,2023-11-19 12:48:41,15.08846545,0.0001474,53.2158,154.8325,90.4136,269.7025,9.6877e-05,1.254e-05,0.0,0 STARLINK-5212,1 54075U 22136AA  23323.53381132  .00001254  00000-0  96877-4 0  9997,2 54075  53.2158 154.8325 0001474  90.4136 269.7025 15.08846545 59937,6917.86,95.437,540.745,538.706,0.0
54075.0,STARLINK-5212,PAYLOAD,2023-11-19 19:10:13,15.08848983,0.0001412,53.2161,153.6436,90.0409,270.0745,0.00011551,1.551e-05,0.0,0 STARLINK-5212,1 54075U 22136AA  23323.79876826  .00001551  00000-0  11551-3 0  9999,2 54075  53.2161 153.6436 0001412  90.0409 270.0745 15.08848983 59978,6917.853,95.437,540.695,538.741,0.0
54075.0,STARLINK-5212,PAYLOAD,2023-11-20 06:17:55,15.08842946,0.0001356,53.2155,151.5617,90.6228,269.492,0.00010551,1.392e-05,0.0,0 STARLINK-5212,1 54075U 22136AA  23324.26245071  .00001392  00000-0  10551-3 0  9996,2 54075  53.2155 151.5617 0001356  90.6228 269.4920 15.08842946 60524,6917.871,95.437,540.674,538.798,0.0
54075.0,STARLINK-5212,PAYLOAD,2023-11-20 12:39:28,15.08841251,0.0001394,53.216,150.3724,90.5618,269.5534,7.9523e-05,9.78e-06,0.0,0 STARLINK-5212,1 54075U 22136AA  23324.52741248  .00000978  00000-0  79523-4 0  9996,2 54075  53.2160 150.3724 0001394  90.5618 269.5534 15.08841251 60081,6917.877,95.437,540.706,538.777,0.0
54075.0,STARLINK-5212,PAYLOAD,2023-11-20 19:01:00,15.08842473,0.0001405,53.2163,149.1831,89.2475,270.8678,6.2996e-05,7.15e-06,0.0,0 STARLINK-5212,1 54075U 22136AA  23324.79237159  .00000715  00000-0  62996-4 0  9991,2 54075  53.2163 149.1831 0001405  89.2475 270.8678 15.08842473 60124,6917.873,95.437,540.71,538.766,0.0
54075.0,STARLINK-5212,PAYLOAD,2023-11-21 12:30:15,15.08845021,0.0001412,53.2162,145.9121,89.2296,270.8858,4.1703e-05,3.76e-06,0.0,0 STARLINK-5212,1 54075U 22136AA  23325.52101001  .00000376  00000-0  41703-4 0  9995,2 54075  53.2162 145.9121 0001412  89.2296 270.8858 15.08845021 60232,6917.865,95.437,540.707,538.753,0.0
